{
    "links": {
        "self": "http://www.neowsapp.com/rest/v1/neo/3840889?api_key=iIulBulltgU6a56xZRHN4H3l9WmuAYTsLGpBGhQ2"
    },
    "id": "3840889",
    "neo_reference_id": "3840889",
    "name": "(2019 GX5)",
    "designation": "2019 GX5",
    "nasa_jpl_url": "http://ssd.jpl.nasa.gov/sbdb.cgi?sstr=3840889",
    "absolute_magnitude_h": 25.5,
    "estimated_diameter": {
        "kilometers": {
            "estimated_diameter_min": 0.0211132445,
            "estimated_diameter_max": 0.0472106499
        },
        "meters": {
            "estimated_diameter_min": 21.113244479,
            "estimated_diameter_max": 47.2106498806
        },
        "miles": {
            "estimated_diameter_min": 0.0131191578,
            "estimated_diameter_max": 0.0293353287
        },
        "feet": {
            "estimated_diameter_min": 69.2691770164,
            "estimated_diameter_max": 154.8905885541
        }
    },
    "is_potentially_hazardous_asteroid": false,
    "close_approach_data": [
        {
            "close_approach_date": "2017-09-13",
            "close_approach_date_full": "2017-Sep-13 08:02",
            "epoch_date_close_approach": 1505289720000,
            "relative_velocity": {
                "kilometers_per_second": "20.7510556187",
                "kilometers_per_hour": "74703.8002272656",
                "miles_per_hour": "46418.0363134363"
            },
            "miss_distance": {
                "astronomical": "0.3761604544",
                "lunar": "146.3264167616",
                "kilometers": "56272802.756472128",
                "miles": "34966298.2240782464"
            },
            "orbiting_body": "Earth"
        },
        {
            "close_approach_date": "2019-04-28",
            "close_approach_date_full": "2019-Apr-28 07:15",
            "epoch_date_close_approach": 1556435700000,
            "relative_velocity": {
                "kilometers_per_second": "10.6452482541",
                "kilometers_per_hour": "38322.8937148982",
                "miles_per_hour": "23812.3558196822"
            },
            "miss_distance": {
                "astronomical": "0.0183656293",
                "lunar": "7.1442297977",
                "kilometers": "2747459.024489591",
                "miles": "1707191.8742787158"
            },
            "orbiting_body": "Earth"
        },
        {
            "close_approach_date": "2093-09-16",
            "close_approach_date_full": "2093-Sep-16 18:58",
            "epoch_date_close_approach": 3903965880000,
            "relative_velocity": {
                "kilometers_per_second": "22.1900696232",
                "kilometers_per_hour": "79884.2506435592",
                "miles_per_hour": "49636.9667401605"
            },
            "miss_distance": {
                "astronomical": "0.4238114956",
                "lunar": "164.8626717884",
                "kilometers": "63401297.023274372",
                "miles": "39395739.1655634536"
            },
            "orbiting_body": "Earth"
        }
    ],
    "orbital_data": {
        "orbit_id": "4",
        "orbit_determination_date": "2019-04-25 07:12:55",
        "first_observation_date": "2019-04-06",
        "last_observation_date": "2019-04-25",
        "data_arc_in_days": 19,
        "observations_used": 21,
        "orbit_uncertainty": "8",
        "minimum_orbit_intersection": ".00209588",
        "jupiter_tisserand_invariant": "4.419",
        "epoch_osculation": "2458581.5",
        "eccentricity": ".4103510475678152",
        "semi_major_axis": "1.513214762065952",
        "inclination": "4.545916131231996",
        "ascending_node_longitude": "218.0242711982598",
        "orbital_period": "679.9066374847016",
        "perihelion_distance": ".8922654992571064",
        "perihelion_argument": "54.16673847496465",
        "aphelion_distance": "2.134164024874798",
        "perihelion_time": "2458644.040781162428",
        "mean_anomaly": "326.8856281477607",
        "mean_motion": ".5294844617664146",
        "equinox": "J2000",
        "orbit_class": {
            "orbit_class_type": "APO",
            "orbit_class_description": "Near-Earth asteroid orbits which cross the Earth’s orbit similar to that of 1862 Apollo",
            "orbit_class_range": "a (semi-major axis) > 1.0 AU; q (perihelion) < 1.017 AU"
        }
    },
    "is_sentry_object": false
}